{
  "norad_id": 43618,
  "name": "SSTL S1-4",
  "history": [
    {
      "epoch": "2026-03-27T05:29:46.119264",
      "apogee_km": 580.2710814582033,
      "perigee_km": 577.2990843443877,
      "latitude_deg": -47.30555782370318,
      "longitude_deg": -92.21542304009199,
      "semi_major_axis_km": 6956.922082901296,
      "eccentricity": 0.0002136,
      "inclination_deg": 97.5154,
      "raan_deg": 321.1952,
      "arg_perigee_deg": 91.1271,
      "mean_anomaly_deg": 269.0196,
      "mean_motion_rev_day": 14.96156601
    }
  ]
}